[Satellite]
VERSION=1.1
NAME=SL-4 R/B
NICKNAME=SL-4 R/B
TLE1=1 54111U 22137C   22297.12060556  .00939582  20570-5  70311-3 0  9994
TLE2=2 54111  97.0836  17.3446 0145451  64.0830 297.5356 15.96603244   370
STATUS=0
